{
  "type": "FeatureCollection",
  "features": [
    {
      "type": "Feature",
      "properties": {
        "norad_id": 41823,
        "name": "FENGYUN 1C DEB",
        "group": "fengyun-1c-debris",
        "lat": 80.95721686268251,
        "lon": -34.09110798284277,
        "alt_km": 844.492902699867,
        "timestamp": "2025-12-03T04:52:29.927655+00:00",
        "meta_object_name": "FENGYUN 1C DEB",
        "meta_object_id": "1999-025EYA",
        "meta_epoch": "2025-12-02T18:20:21.055776",
        "meta_mean_motion": 14.23408198,
        "meta_eccentricity": 0.0054142,
        "meta_inclination": 98.722,
        "meta_ra_of_asc_node": 40.1783,
        "meta_arg_of_pericenter": 257.0596,
        "meta_mean_anomaly": 102.4532,
        "meta_ephemeris_type": 0,
        "meta_classification_type": "U",
        "meta_norad_cat_id": 41823,
        "meta_element_set_no": 999,
        "meta_rev_at_epoch": 47216,
        "meta_bstar": 0.001978,
        "meta_mean_motion_dot": 4.516e-05,
        "meta_mean_motion_ddot": 0,
        "tle_line1": "1 41823U 99025EYA 25336.76413259  .00004516  00000+0  19780-2 0  9991",
        "tle_line2": "2 41823  98.7220  40.1783 0054142 257.0596 102.4532 14.23408198472168"
      },
      "geometry": {
        "type": "Point",
        "coordinates": [
          -34.09110798284277,
          80.95721686268251
        ]
      }
    },
    {
      "type": "Feature",
      "properties": {
        "norad_id": 41824,
        "name": "FENGYUN 1C DEB",
        "group": "fengyun-1c-debris",
        "lat": -67.14444343678231,
        "lon": 62.6810058349577,
        "alt_km": 786.192049434605,
        "timestamp": "2025-12-03T04:52:29.927665+00:00",
        "meta_object_name": "FENGYUN 1C DEB",
        "meta_object_id": "1999-025EYB",
        "meta_epoch": "2025-12-02T03:54:06.991488",
        "meta_mean_motion": 14.24036744,
        "meta_eccentricity": 0.0056522,
        "meta_inclination": 98.7333,
        "meta_ra_of_asc_node": 40.2594,
        "meta_arg_of_pericenter": 257.71,
        "meta_mean_anomaly": 101.7747,
        "meta_ephemeris_type": 0,
        "meta_classification_type": "U",
        "meta_norad_cat_id": 41824,
        "meta_element_set_no": 999,
        "meta_rev_at_epoch": 47209,
        "meta_bstar": 0.0018227364,
        "meta_mean_motion_dot": 4.215e-05,
        "meta_mean_motion_ddot": 0,
        "tle_line1": "1 41824U 99025EYB 25336.16258092  .00004215  00000+0  18227-2 0  9999",
        "tle_line2": "2 41824  98.7333  40.2594 0056522 257.7100 101.7747 14.24036744472094"
      },
      "geometry": {
        "type": "Point",
        "coordinates": [
          62.6810058349577,
          -67.14444343678231
        ]
      }
    },
    {
      "type": "Feature",
      "properties": {
        "norad_id": 41825,
        "name": "FENGYUN 1C DEB",
        "group": "fengyun-1c-debris",
        "lat": 56.98410775181671,
        "lon": -120.03581118838473,
        "alt_km": 825.9215964573932,
        "timestamp": "2025-12-03T04:52:29.927675+00:00",
        "meta_object_name": "FENGYUN 1C DEB",
        "meta_object_id": "1999-025EYC",
        "meta_epoch": "2025-11-26T03:46:33.202272",
        "meta_mean_motion": 14.24905851,
        "meta_eccentricity": 0.00545151,
        "meta_inclination": 98.7423,
        "meta_ra_of_asc_node": 39.2502,
        "meta_arg_of_pericenter": 268.2468,
        "meta_mean_anomaly": 91.2466,
        "meta_ephemeris_type": 0,
        "meta_classification_type": "U",
        "meta_norad_cat_id": 41825,
        "meta_element_set_no": 999,
        "meta_rev_at_epoch": 47112,
        "meta_bstar": 0.0019288716,
        "meta_mean_motion_dot": 4.534e-05,
        "meta_mean_motion_ddot": 0,
        "tle_line1": "1 41825U 99025EYC 25330.15732873  .00004534  00000+0  19289-2 0  9990",
        "tle_line2": "2 41825  98.7423  39.2502 0054515 268.2468  91.2466 14.24905851471124"
      },
      "geometry": {
        "type": "Point",
        "coordinates": [
          -120.03581118838473,
          56.98410775181671
        ]
      }
    },
    {
      "type": "Feature",
      "properties": {
        "norad_id": 41826,
        "name": "FENGYUN 1C DEB",
        "group": "fengyun-1c-debris",
        "lat": 39.96388783452958,
        "lon": -129.53521705547158,
        "alt_km": 824.2956353010122,
        "timestamp": "2025-12-03T04:52:29.927685+00:00",
        "meta_object_name": "FENGYUN 1C DEB",
        "meta_object_id": "1999-025EYD",
        "meta_epoch": "2025-11-26T15:20:38.448096",
        "meta_mean_motion": 14.23588409,
        "meta_eccentricity": 0.00545194,
        "meta_inclination": 98.735,
        "meta_ra_of_asc_node": 36.5456,
        "meta_arg_of_pericenter": 270.1742,
        "meta_mean_anomaly": 89.3189,
        "meta_ephemeris_type": 0,
        "meta_classification_type": "U",
        "meta_norad_cat_id": 41826,
        "meta_element_set_no": 999,
        "meta_rev_at_epoch": 47131,
        "meta_bstar": 0.0016457098,
        "meta_mean_motion_dot": 3.763e-05,
        "meta_mean_motion_ddot": 0,
        "tle_line1": "1 41826U 99025EYD 25330.63933389  .00003763  00000+0  16457-2 0  9996",
        "tle_line2": "2 41826  98.7350  36.5456 0054519 270.1742  89.3189 14.23588409471319"
      },
      "geometry": {
        "type": "Point",
        "coordinates": [
          -129.53521705547158,
          39.96388783452958
        ]
      }
    },
    {
      "type": "Feature",
      "properties": {
        "norad_id": 41827,
        "name": "FENGYUN 1C DEB",
        "group": "fengyun-1c-debris",
        "lat": -16.062560511946906,
        "lon": 48.98165865415317,
        "alt_km": 821.9792880898067,
        "timestamp": "2025-12-03T04:52:29.927695+00:00",
        "meta_object_name": "FENGYUN 1C DEB",
        "meta_object_id": "1999-025EYE",
        "meta_epoch": "2025-12-02T03:40:34.890240",
        "meta_mean_motion": 14.25136098,
        "meta_eccentricity": 0.005754,
        "meta_inclination": 98.7437,
        "meta_ra_of_asc_node": 45.3959,
        "meta_arg_of_pericenter": 243.7009,
        "meta_mean_anomaly": 115.8252,
        "meta_ephemeris_type": 0,
        "meta_classification_type": "U",
        "meta_norad_cat_id": 41827,
        "meta_element_set_no": 999,
        "meta_rev_at_epoch": 47180,
        "meta_bstar": 0.0019116302,
        "meta_mean_motion_dot": 4.522e-05,
        "meta_mean_motion_ddot": 0,
        "tle_line1": "1 41827U 99025EYE 25336.15318160  .00004522  00000+0  19116-2 0  9993",
        "tle_line2": "2 41827  98.7437  45.3959 0057540 243.7009 115.8252 14.25136098471806"
      },
      "geometry": {
        "type": "Point",
        "coordinates": [
          48.98165865415317,
          -16.062560511946906
        ]
      }
    },
    {
      "type": "Feature",
      "properties": {
        "norad_id": 41828,
        "name": "FENGYUN 1C DEB",
        "group": "fengyun-1c-debris",
        "lat": 58.26432178333901,
        "lon": 89.95304075811758,
        "alt_km": 739.5096315744213,
        "timestamp": "2025-12-03T04:52:29.927706+00:00",
        "meta_object_name": "FENGYUN 1C DEB",
        "meta_object_id": "1999-025EYF",
        "meta_epoch": "2025-12-02T20:19:31.468800",
        "meta_mean_motion": 14.51050287,
        "meta_eccentricity": 0.0040325,
        "meta_inclination": 98.9216,
        "meta_ra_of_asc_node": 104.2891,
        "meta_arg_of_pericenter": 204.1346,
        "meta_mean_anomaly": 155.7959,
        "meta_ephemeris_type": 0,
        "meta_classification_type": "U",
        "meta_norad_cat_id": 41828,
        "meta_element_set_no": 999,
        "meta_rev_at_epoch": 47320,
        "meta_bstar": 0.0068161,
        "meta_mean_motion_dot": 0.00027328,
        "meta_mean_motion_ddot": 0,
        "tle_line1": "1 41828U 99025EYF 25336.84689200  .00027328  00000+0  68161-2 0  9999",
        "tle_line2": "2 41828  98.9216 104.2891 0040325 204.1346 155.7959 14.51050287473209"
      },
      "geometry": {
        "type": "Point",
        "coordinates": [
          89.95304075811758,
          58.26432178333901
        ]
      }
    },
    {
      "type": "Feature",
      "properties": {
        "norad_id": 41829,
        "name": "FENGYUN 1C DEB",
        "group": "fengyun-1c-debris",
        "lat": 44.80580117046829,
        "lon": -124.75425820075948,
        "alt_km": 819.4098034572844,
        "timestamp": "2025-12-03T04:52:29.927716+00:00",
        "meta_object_name": "FENGYUN 1C DEB",
        "meta_object_id": "1999-025EYG",
        "meta_epoch": "2025-12-02T11:23:20.583456",
        "meta_mean_motion": 14.25001298,
        "meta_eccentricity": 0.00558629,
        "meta_inclination": 98.7463,
        "meta_ra_of_asc_node": 45.7244,
        "meta_arg_of_pericenter": 248.5061,
        "meta_mean_anomaly": 111.0157,
        "meta_ephemeris_type": 0,
        "meta_classification_type": "U",
        "meta_norad_cat_id": 41829,
        "meta_element_set_no": 999,
        "meta_rev_at_epoch": 47161,
        "meta_bstar": 0.0020043471,
        "meta_mean_motion_dot": 4.726e-05,
        "meta_mean_motion_ddot": 0,
        "tle_line1": "1 41829U 99025EYG 25336.47454379  .00004726  00000+0  20043-2 0  9990",
        "tle_line2": "2 41829  98.7463  45.7244 0055862 248.5061 111.0157 14.25001298471618"
      },
      "geometry": {
        "type": "Point",
        "coordinates": [
          -124.75425820075948,
          44.80580117046829
        ]
      }
    }
  ]
}